CCSDS_OMM_VERS = 2.0
CREATION_DATE  = 
ORIGINATOR     = 

OBJECT_NAME    = OKEAN-3
OBJECT_ID      = 1991-039A
CENTER_NAME    = EARTH
REF_FRAME      = TEME
TIME_SYSTEM    = UTC
MEAN_ELEMENT_THEORY = SGP/SGP4

EPOCH          = 2025-11-17T19:11:11.575392
MEAN_MOTION    = 15.03882996
ECCENTRICITY   = .001426
INCLINATION    = 82.5158
RA_OF_ASC_NODE = 85.1801
ARG_OF_PERICENTER = 357.5604
MEAN_ANOMALY   = 2.5550

EPHEMERIS_TYPE = 0
CLASSIFICATION_TYPE = U
NORAD_CAT_ID   = 21397
ELEMENT_SET_NO = 999
REV_AT_EPOCH   = 84821
BSTAR          = .33834E-3
MEAN_MOTION_DOT = .4695E-4
MEAN_MOTION_DDOT = 0

CCSDS_OMM_VERS = 2.0
CREATION_DATE  = 
ORIGINATOR     = 

OBJECT_NAME    = COSMOS 2151
OBJECT_ID      = 1991-042A
CENTER_NAME    = EARTH
REF_FRAME      = TEME
TIME_SYSTEM    = UTC
MEAN_ELEMENT_THEORY = SGP/SGP4

EPOCH          = 2025-11-18T03:14:29.681664
MEAN_MOTION    = 14.99566788
ECCENTRICITY   = .0014112
INCLINATION    = 82.4982
RA_OF_ASC_NODE = 191.2098
ARG_OF_PERICENTER = 77.1907
MEAN_ANOMALY   = 283.0893

EPHEMERIS_TYPE = 0
CLASSIFICATION_TYPE = U
NORAD_CAT_ID   = 21422
ELEMENT_SET_NO = 999
REV_AT_EPOCH   = 84647
BSTAR          = .18055E-3
MEAN_MOTION_DOT = .225E-4
MEAN_MOTION_DDOT = 0

CCSDS_OMM_VERS = 2.0
CREATION_DATE  = 
ORIGINATOR     = 

OBJECT_NAME    = SL-14 R/B
OBJECT_ID      = 1991-042B
CENTER_NAME    = EARTH
REF_FRAME      = TEME
TIME_SYSTEM    = UTC
MEAN_ELEMENT_THEORY = SGP/SGP4

EPOCH          = 2025-11-18T01:34:40.509696
MEAN_MOTION    = 14.81706902
ECCENTRICITY   = .0015587
INCLINATION    = 82.4916
RA_OF_ASC_NODE = 324.8645
ARG_OF_PERICENTER = 245.8160
MEAN_ANOMALY   = 114.1425

EPHEMERIS_TYPE = 0
CLASSIFICATION_TYPE = U
NORAD_CAT_ID   = 21423
ELEMENT_SET_NO = 999
REV_AT_EPOCH   = 83654
BSTAR          = .77481E-4
MEAN_MOTION_DOT = .634E-5
MEAN_MOTION_DDOT = 0

CCSDS_OMM_VERS = 2.0
CREATION_DATE  = 
ORIGINATOR     = 

OBJECT_NAME    = ERS-1
OBJECT_ID      = 1991-050A
CENTER_NAME    = EARTH
REF_FRAME      = TEME
TIME_SYSTEM    = UTC
MEAN_ELEMENT_THEORY = SGP/SGP4

EPOCH          = 2025-11-18T01:24:43.240320
MEAN_MOTION    = 14.39338056
ECCENTRICITY   = .0032162
INCLINATION    = 98.7917
RA_OF_ASC_NODE = 332.4949
ARG_OF_PERICENTER = 171.6288
MEAN_ANOMALY   = 188.5442

EPHEMERIS_TYPE = 0
CLASSIFICATION_TYPE = U
NORAD_CAT_ID   = 21574
ELEMENT_SET_NO = 999
REV_AT_EPOCH   = 79967
BSTAR          = .16838E-3
MEAN_MOTION_DOT = .48E-5
MEAN_MOTION_DDOT = 0

CCSDS_OMM_VERS = 2.0
CREATION_DATE  = 
ORIGINATOR     = 

OBJECT_NAME    = ARIANE 40 R/B
OBJECT_ID      = 1991-050F
CENTER_NAME    = EARTH
REF_FRAME      = TEME
TIME_SYSTEM    = UTC
MEAN_ELEMENT_THEORY = SGP/SGP4

EPOCH          = 2025-11-18T04:00:42.548832
MEAN_MOTION    = 14.42784388
ECCENTRICITY   = .0004104
INCLINATION    = 98.2203
RA_OF_ASC_NODE = 13.4807
ARG_OF_PERICENTER = 64.3632
MEAN_ANOMALY   = 295.7982

EPHEMERIS_TYPE = 0
CLASSIFICATION_TYPE = U
NORAD_CAT_ID   = 21610
ELEMENT_SET_NO = 999
REV_AT_EPOCH   = 80291
BSTAR          = .17599E-3
MEAN_MOTION_DOT = .545E-5
MEAN_MOTION_DDOT = 0

CCSDS_OMM_VERS = 2.0
CREATION_DATE  = 
ORIGINATOR     = 

OBJECT_NAME    = INTERCOSMOS 25
OBJECT_ID      = 1991-086A
CENTER_NAME    = EARTH
REF_FRAME      = TEME
TIME_SYSTEM    = UTC
MEAN_ELEMENT_THEORY = SGP/SGP4

EPOCH          = 2025-11-18T04:43:40.567584
MEAN_MOTION    = 12.11621607
ECCENTRICITY   = .1487961
INCLINATION    = 82.6086
RA_OF_ASC_NODE = 17.4127
ARG_OF_PERICENTER = 357.3137
MEAN_ANOMALY   = 2.0529

EPHEMERIS_TYPE = 0
CLASSIFICATION_TYPE = U
NORAD_CAT_ID   = 21819
ELEMENT_SET_NO = 999
REV_AT_EPOCH   = 48318
BSTAR          = .40542E-3
MEAN_MOTION_DOT = .2066E-4
MEAN_MOTION_DDOT = 0

CCSDS_OMM_VERS = 2.0
CREATION_DATE  = 
ORIGINATOR     = 

OBJECT_NAME    = SL-8 R/B
OBJECT_ID      = 1992-008B
CENTER_NAME    = EARTH
REF_FRAME      = TEME
TIME_SYSTEM    = UTC
MEAN_ELEMENT_THEORY = SGP/SGP4

EPOCH          = 2025-11-18T04:11:00.967200
MEAN_MOTION    = 13.75951342
ECCENTRICITY   = .0036131
INCLINATION    = 82.9276
RA_OF_ASC_NODE = 350.7197
ARG_OF_PERICENTER = 86.5120
MEAN_ANOMALY   = 338.9616

EPHEMERIS_TYPE = 0
CLASSIFICATION_TYPE = U
NORAD_CAT_ID   = 21876
ELEMENT_SET_NO = 999
REV_AT_EPOCH   = 69408
BSTAR          = .12824E-3
MEAN_MOTION_DOT = .14E-5
MEAN_MOTION_DDOT = 0

CCSDS_OMM_VERS = 2.0
CREATION_DATE  = 
ORIGINATOR     = 

OBJECT_NAME    = SL-8 R/B
OBJECT_ID      = 1992-020B
CENTER_NAME    = EARTH
REF_FRAME      = TEME
TIME_SYSTEM    = UTC
MEAN_ELEMENT_THEORY = SGP/SGP4

EPOCH          = 2025-11-18T04:36:07.613856
MEAN_MOTION    = 13.75522753
ECCENTRICITY   = .0027684
INCLINATION    = 82.9315
RA_OF_ASC_NODE = 236.5441
ARG_OF_PERICENTER = 248.5572
MEAN_ANOMALY   = 221.1137

EPHEMERIS_TYPE = 0
CLASSIFICATION_TYPE = U
NORAD_CAT_ID   = 21938
ELEMENT_SET_NO = 999
REV_AT_EPOCH   = 68580
BSTAR          = .84501E-4
MEAN_MOTION_DOT = .96E-6
MEAN_MOTION_DDOT = 0

CCSDS_OMM_VERS = 2.0
CREATION_DATE  = 
ORIGINATOR     = 

OBJECT_NAME    = USA 81
OBJECT_ID      = 1992-023A
CENTER_NAME    = EARTH
REF_FRAME      = TEME
TIME_SYSTEM    = UTC
MEAN_ELEMENT_THEORY = SGP/SGP4

EPOCH          = 2025-11-18T03:55:57.720000
MEAN_MOTION    = 14.32314721
ECCENTRICITY   = .0002464
INCLINATION    = 85.0104
RA_OF_ASC_NODE = 195.7472
ARG_OF_PERICENTER = 71.6432
MEAN_ANOMALY   = 288.5028

EPHEMERIS_TYPE = 0
CLASSIFICATION_TYPE = U
NORAD_CAT_ID   = 21949
ELEMENT_SET_NO = 999
REV_AT_EPOCH   = 7882
BSTAR          = .90914E-4
MEAN_MOTION_DOT = .265E-5
MEAN_MOTION_DDOT = 0

CCSDS_OMM_VERS = 2.0
CREATION_DATE  = 
ORIGINATOR     = 

OBJECT_NAME    = COSMOS 2219
OBJECT_ID      = 1992-076A
CENTER_NAME    = EARTH
REF_FRAME      = TEME
TIME_SYSTEM    = UTC
MEAN_ELEMENT_THEORY = SGP/SGP4

EPOCH          = 2025-11-18T04:16:27.439104
MEAN_MOTION    = 14.14067658
ECCENTRICITY   = .0018042
INCLINATION    = 71.0611
RA_OF_ASC_NODE = 251.1732
ARG_OF_PERICENTER = 2.1633
MEAN_ANOMALY   = 357.9564

EPHEMERIS_TYPE = 0
CLASSIFICATION_TYPE = U
NORAD_CAT_ID   = 22219
ELEMENT_SET_NO = 999
REV_AT_EPOCH   = 70261
BSTAR          = .1928E-5
MEAN_MOTION_DOT = -.43E-6
MEAN_MOTION_DDOT = 0

CCSDS_OMM_VERS = 2.0
CREATION_DATE  = 
ORIGINATOR     = 

OBJECT_NAME    = SL-16 R/B
OBJECT_ID      = 1992-076B
CENTER_NAME    = EARTH
REF_FRAME      = TEME
TIME_SYSTEM    = UTC
MEAN_ELEMENT_THEORY = SGP/SGP4

EPOCH          = 2025-11-17T17:49:00.352416
MEAN_MOTION    = 14.16835708
ECCENTRICITY   = .001525
INCLINATION    = 71.0008
RA_OF_ASC_NODE = 64.1860
ARG_OF_PERICENTER = 266.5982
MEAN_ANOMALY   = 245.5429

EPHEMERIS_TYPE = 0
CLASSIFICATION_TYPE = U
NORAD_CAT_ID   = 22220
ELEMENT_SET_NO = 999
REV_AT_EPOCH   = 70597
BSTAR          = -.36897E-4
MEAN_MOTION_DOT = -.122E-5
MEAN_MOTION_DDOT = 0

CCSDS_OMM_VERS = 2.0
CREATION_DATE  = 
ORIGINATOR     = 

OBJECT_NAME    = COSMOS 2221
OBJECT_ID      = 1992-080A
CENTER_NAME    = EARTH
REF_FRAME      = TEME
TIME_SYSTEM    = UTC
MEAN_ELEMENT_THEORY = SGP/SGP4

EPOCH          = 2025-11-18T04:45:47.153088
MEAN_MOTION    = 14.95631537
ECCENTRICITY   = .0014068
INCLINATION    = 82.5069
RA_OF_ASC_NODE = 25.8103
ARG_OF_PERICENTER = 201.6853
MEAN_ANOMALY   = 158.3775

EPHEMERIS_TYPE = 0
CLASSIFICATION_TYPE = U
NORAD_CAT_ID   = 22236
ELEMENT_SET_NO = 999
REV_AT_EPOCH   = 76412
BSTAR          = .24839E-3
MEAN_MOTION_DOT = .2789E-4
MEAN_MOTION_DDOT = 0

