OKEAN-3                 
1 21397U 91039A   25321.79943953  .00004695  00000+0  33834-3 0  9993
2 21397  82.5158  85.1801 0014260 357.5604   2.5550 15.03882996848210
COSMOS 2151             
1 21422U 91042A   25322.13506576  .00002250  00000+0  18055-3 0  9994
2 21422  82.4982 191.2098 0014112  77.1907 283.0893 14.99566788846471
SL-14 R/B               
1 21423U 91042B   25322.06574664  .00000634  00000+0  77481-4 0  9993
2 21423  82.4916 324.8645 0015587 245.8160 114.1425 14.81706902836540
ERS-1                   
1 21574U 91050A   25322.05883380  .00000480  00000+0  16838-3 0  9993
2 21574  98.7917 332.4949 0032162 171.6288 188.5442 14.39338056799675
ARIANE 40 R/B           
1 21610U 91050F   25322.16715913  .00000545  00000+0  17599-3 0  9999
2 21610  98.2203  13.4807 0004104  64.3632 295.7982 14.42784388802913
INTERCOSMOS 25          
1 21819U 91086A   25322.19699731  .00002066  00000+0  40542-3 0  9995
2 21819  82.6086  17.4127 1487961 357.3137   2.0529 12.11621607483189
SL-8 R/B                
1 21876U 92008B   25322.17431675  .00000140  00000+0  12824-3 0  9995
2 21876  82.9276 350.7197 0036131  86.5120 338.9616 13.75951342694081
SL-8 R/B                
1 21938U 92020B   25322.19175479  .00000096  00000+0  84501-4 0  9999
2 21938  82.9315 236.5441 0027684 248.5572 221.1137 13.75522753685802
USA 81                  
1 21949U 92023A   25322.16386250  .00000265  00000+0  90914-4 0  9995
2 21949  85.0104 195.7472 0002464  71.6432 288.5028 14.32314721 78825
COSMOS 2219             
1 22219U 92076A   25322.17809536 -.00000043  00000+0  19280-5 0  9995
2 22219  71.0611 251.1732 0018042   2.1633 357.9564 14.14067658702612
SL-16 R/B               
1 22220U 92076B   25321.74236519 -.00000122  00000+0 -36897-4 0  9995
2 22220  71.0008  64.1860 0015250 266.5982 245.5429 14.16835708705974
COSMOS 2221             
1 22236U 92080A   25322.19846242  .00002789  00000+0  24839-3 0  9998
2 22236  82.5069  25.8103 0014068 201.6853 158.3775 14.95631537764120
